{"fetched_at":"2026-06-01T17:35:51Z","count":7005,"tles":[{"name":"SL-14 R/B","line1":"1 21423U 91042B   26151.94750682  .00000435  00000+0  51978-4 0  9999","line2":"2 21423  82.4915 142.1251 0016203 332.5209  27.5146 14.81890923865408","category":"Other"},{"name":"BEIDOU-3 M13","line1":"1 43622U 18072A   26151.89020014 -.00000067  00000+0  00000+0 0  9996","line2":"2 43622  56.6116  63.1968 0007908 325.8562  34.1016  1.86231366 52358","category":"GPS"},{"name":"FALCON 9 DEB","line1":"1 56560U 23065BK  23174.50174993  .04697057  91757-5  71731-3 0  9997","line2":"2 56560  42.9906 192.1100 0004261 276.3494  83.6911 16.33147507  7233","category":"Other"},{"name":"SL-3 R/B","line1":"1 05118U 71028B   26152.17489089  .00050117  00000+0  44562-3 0  9992","line2":"2 05118  81.2328 308.3576 0013618 340.8137  19.2605 15.68178416  1739","category":"Other"},{"name":"GAOFEN-8","line1":"1 40701U 15030A   26152.16182991  .00008202  00000+0  17398-3 0  9996","line2":"2 40701  97.6905 344.5778 0007654 246.9648 113.0793 15.45318512608978","category":"Other"},{"name":"SL-12 R/B(2)","line1":"1 15772U 85042D   26151.85666749  .00000009  00000+0  25674-4 0  9993","line2":"2 15772  71.1085 272.0173 0035337 352.7320 142.4055 14.22002601126212","category":"Other"},{"name":"CZ-4B R/B","line1":"1 27432U 02024C   26152.10524977  .00000071  00000+0  58967-4 0  9993","line2":"2 27432  98.8707 205.0287 0050816 145.1070 235.1202 14.14561640241038","category":"Other"},{"name":"SL-3 R/B","line1":"1 12465U 81046B   26152.18224699  .00011346  00000+0  24772-3 0  9993","line2":"2 12465  81.2298 189.3439 0019561  90.1973 270.1512 15.43851488451306","category":"Other"},{"name":"ALOS (DAICHI)","line1":"1 28931U 06002A   26151.89069943  .00001349  00000+0  23324-3 0  9997","line2":"2 28931  98.1316 107.5101 0002003  68.9218 291.2201 14.70013508 85703","category":"Other"},{"name":"USA 81","line1":"1 21949U 92023A   26151.85860485  .00000198  00000+0  66066-4 0  9995","line2":"2 21949  85.0075  83.4303 0002642  99.5017 260.6474 14.32393135106693","category":"Military"},{"name":"BEIDOU-3 M10","line1":"1 43246U 18029B   26151.23734998 -.00000084  00000+0  00000+0 0  9990","line2":"2 43246  54.2072 300.5669 0004274  39.1191 320.8833  1.86229298 55566","category":"GPS"},{"name":"CZ-2C R/B","line1":"1 43521U 18054D   26059.19164949  .05758169  14813-5  64760-3 0  9997","line2":"2 43521  35.1189   3.8055 0006750 238.6763 121.3328 16.35845045427383","category":"Other"},{"name":"SL-16 R/B","line1":"1 28353U 04021B   26152.18039953 -.00000016  00000+0  16250-4 0  9997","line2":"2 28353  71.0025  57.2812 0007423 272.3928  87.6345 14.14613235134643","category":"Other"},{"name":"SL-14 R/B","line1":"1 13553U 82092B   26152.18797957  .00000540  00000+0  57685-4 0  9990","line2":"2 13553  82.5689  63.2725 0021099  28.2015 136.0854 14.86734479341335","category":"Other"},{"name":"SL-14 R/B","line1":"1 16792U 86046B   26151.98853330  .00000439  00000+0  47730-4 0  9993","line2":"2 16792  82.4820   1.4834 0021996 315.5069  44.4380 14.85659471138776","category":"Other"},{"name":"HJ-2E","line1":"1 54035U 22132A   26152.17947256  .00009223  00000+0  40349-3 0  9992","line2":"2 54035  97.3792 156.8477 0022272  68.2830 292.0774 15.22051982201982","category":"Other"},{"name":"SL-4 R/B","line1":"1 39679U 14021B   26151.79455323  .00015005  00000+0  31042-3 0  9998","line2":"2 39679  51.6064 291.0572 0091904  46.4651 314.3922 15.41562689669083","category":"Other"},{"name":"BEIDOU-3 M4","line1":"1 43207U 18018A   26149.94478896 -.00000083  00000+0  00000+0 0  9991","line2":"2 43207  56.6361  63.7493 0007746  13.0903 346.9273  1.86231318 56409","category":"GPS"},{"name":"CZ-2C R/B","line1":"1 52794U 22058K   26151.66579681  .00044152  00000+0  51108-3 0  9990","line2":"2 52794  50.1866 249.4110 0033665 197.9466 162.0321 15.60646810223066","category":"Other"},{"name":"SL-3 R/B","line1":"1 13068U 82013B   26152.18902198  .00003872  00000+0  16428-3 0  9999","line2":"2 13068  81.1753  62.8337 0020572 257.4520 102.4412 15.22674520417050","category":"Other"},{"name":"COSMOS 1536","line1":"1 14699U 84013A   26152.08617056  .00006372  00000+0  25442-3 0  9991","line2":"2 14699  82.5454  24.8800 0014013 356.4986   3.6151 15.24871856285324","category":"Other"},{"name":"CZ-2C R/B","line1":"1 31114U 07010B   26152.20899515  .00000113  00000+0  70843-4 0  9993","line2":"2 31114  98.4085 261.3428 0059860  52.2125 308.4453 14.20272066991575","category":"Other"},{"name":"BEIDOU-3 M14","line1":"1 43623U 18072B   26150.14476010 -.00000082  00000+0  00000+0 0  9992","line2":"2 43623  56.6118  63.2485 0006528 353.4482   6.5426  1.86231381 52312","category":"GPS"},{"name":"FREGAT DEB","line1":"1 49271U 11037PF  26151.14915701  .00018955  00000+0  30994-1 0  9991","line2":"2 49271  51.6227  53.0895 0914379 245.3590 104.9405 12.41880577222933","category":"Other"},{"name":"OKEAN-O","line1":"1 25860U 99039A   26152.12647190  .00000731  00000+0  10241-3 0  9998","line2":"2 25860  97.9322 211.1079 0001932  85.0471 275.0961 14.80445681446731","category":"Other"},{"name":"MIDORI II (ADEOS-II)","line1":"1 27597U 02056A   26151.89764551  .00000313  00000+0  14086-3 0  9991","line2":"2 27597  98.7871 111.0200 0002136  99.3296 260.8127 14.29339656222186","category":"Other"},{"name":"SL-14 R/B","line1":"1 11267U 79011B   26152.07980910  .00000601  00000+0  56649-4 0  9995","line2":"2 11267  82.5248  17.4408 0017063 134.9536 225.3071 14.91998313541211","category":"Other"},{"name":"GSAT0202 (GALILEO 6)","line1":"1 40129U 14050B   26150.88600487 -.00000069  00000+0  00000+0 0  9995","line2":"2 40129  48.9115 273.2309 1673142 179.4475 180.7991  1.85520776 80164","category":"GPS"},{"name":"BEIDOU-2 IGSO-2","line1":"1 37256U 10068A   26149.93047685 -.00000227  00000+0  00000+0 0  9992","line2":"2 37256  47.5822 272.0579 0055238 212.8050 204.6695  1.00287198 56612","category":"GPS"},{"name":"H-2A R/B","line1":"1 28932U 06002B   26152.16808838  .00007294  00000+0  35278-3 0  9999","line2":"2 28932  98.2544 306.5519 0049893 318.1362  41.6058 15.17850656107099","category":"Other"},{"name":"SL-8 R/B","line1":"1 15483U 85006B   26151.94237958  .00000300  00000+0  10803-3 0  9999","line2":"2 15483  74.0446 107.9567 0018290 358.2795  58.2118 14.37826488165998","category":"Other"},{"name":"SL-8 R/B","line1":"1 03230U 68040B   26151.95018307  .00002786  00000+0  20473-3 0  9995","line2":"2 03230  74.0289 143.4951 0025850 299.4306  60.4302 15.03726669102520","category":"Other"},{"name":"SL-3 R/B","line1":"1 10114U 77057B   26152.11831343  .00012403  00000+0  24298-3 0  9990","line2":"2 10114  97.5827 327.8864 0006421 353.9646   6.1524 15.47517802681221","category":"Other"},{"name":"ASTRO-H (HITOMI)","line1":"1 41337U 16012A   26152.17462587  .00002524  00000+0  14403-3 0  9991","line2":"2 41337  30.9974 177.5983 0009431  91.9123 268.2595 15.10438409564865","category":"Other"},{"name":"SL-14 R/B","line1":"1 16882U 86055B   26152.20281943  .00000512  00000+0  55952-4 0  9991","line2":"2 16882  82.5217  48.1599 0020236  58.3826 106.5947 14.85710416131760","category":"Other"},{"name":"GAOFEN-11 04","line1":"1 54818U 22176A   26152.22374840  .00006528  00000+0  27499-3 0  9994","line2":"2 54818  97.4214 285.6037 0007087  29.1687 330.9944 15.23663507190821","category":"Other"},{"name":"CZ-2C R/B","line1":"1 37731U 11030B   26151.89949500  .00001521  00000+0  19640-3 0  9996","line2":"2 37731  97.8647 107.5813 0053874  79.7816 347.8406 14.81427735802413","category":"Other"},{"name":"JILIN-1","line1":"1 40961U 15057D   26152.17293308  .00001029  00000+0  14861-3 0  9991","line2":"2 40961  97.6506 152.3354 0015889 320.0992  39.9051 14.78130934573242","category":"Other"},{"name":"COSMOS 2456 [GLONASS-M]","line1":"1 36111U 09070A   26152.13498419 -.00000037  00000+0  00000+0 0  9992","line2":"2 36111  65.0029  71.5187 0005250 325.3300 216.2021  2.13103743128080","category":"GPS"},{"name":"SL-16 R/B","line1":"1 25861U 99039B   26152.16322198  .00000598  00000+0  82450-4 0  9994","line2":"2 25861  97.9845 211.0711 0014481 352.1037   7.9945 14.81827459449222","category":"Other"},{"name":"H-2A R/B","line1":"1 27601U 02056E   26151.88232586  .00000244  00000+0  10042-3 0  9995","line2":"2 27601  98.3306 109.1517 0068869 273.9536  98.8442 14.33814113226030","category":"Other"},{"name":"BEIDOU-3 M1","line1":"1 43001U 17069A   26150.95041993 -.00000075  00000+0  00000+0 0  9996","line2":"2 43001  56.6778  63.6518 0011096 322.7752  37.1508  1.86231417 58283","category":"GPS"},{"name":"GSLV R/B","line1":"1 54149U 22138AN  26151.94350019  .00002618  00000+0  22326-3 0  9999","line2":"2 54149  87.3789 138.4397 0020220 201.7096 158.3281 14.97177190196384","category":"Other"},{"name":"LUDI TANCE 1-01B (L-SA*)","line1":"1 51822U 22018A   26152.21473316  .00000751  00000+0  86876-4 0  9995","line2":"2 51822  97.8103 159.8571 0001568  93.4970 266.6426 14.88414266231334","category":"Other"},{"name":"SERT 2","line1":"1 04327U 70009A   26151.82465552 -.00000011  00000+0  41982-4 0  9994","line2":"2 04327  99.2840  90.4163 0004306 323.0911  52.6151 13.58737985791187","category":"Other"},{"name":"GSAT0206 (GALILEO 10)","line1":"1 40890U 15045B   26150.27321682  .00000027  00000+0  00000+0 0  9998","line2":"2 40890  54.9498 222.0993 0001585 352.1406   7.9407  1.70473978 66734","category":"GPS"},{"name":"SL-14 R/B","line1":"1 17567U 87024B   26152.05903237  .00000448  00000+0  48119-4 0  9994","line2":"2 17567  82.5289  14.4109 0017916 349.5516  10.5325 14.86201555100518","category":"Other"},{"name":"SL-16 R/B","line1":"1 19650U 88102B   26151.97125793  .00000282  00000+0  16628-3 0  9995","line2":"2 19650  71.0001 336.2605 0016199 246.9709 112.9706 14.16164504938682","category":"Other"},{"name":"CENTAURI-1","line1":"1 43809U 18099BD  26152.10385811  .00006876  00000+0  35849-3 0  9992","line2":"2 43809  97.4226 204.1694 0014727  30.4381 329.7704 15.16187342410063","category":"Other"}]}